[{"norad_id":"57306","company":"STARLINK","tle_line2":"2 57306  42.9996 268.8669 0011943 345.7061  14.3446 15.13324351105502","launch_date":"2023-07-10","type":"LEO","tle_line1":"1 57306U 23096S   25159.29552475  .00037406  00000+0  20613-2 0  9995","satellite_name":"STARLINK-30200"},{"norad_id":"57307","company":"STARLINK","tle_line2":"2 57307  42.9990 268.1192 0010785 347.8475  12.2110 15.11766170105542","launch_date":"2023-07-10","type":"LEO","tle_line1":"1 57307U 23096T   25159.65801786  .00027265  00000+0  15755-2 0  9991","satellite_name":"STARLINK-30209"},{"norad_id":"57308","company":"STARLINK","tle_line2":"2 57308  42.9934 249.7835 0020402  17.0519  78.8701 15.40409993  5702","launch_date":"2023-07-10","type":"LEO","tle_line1":"1 57308U 23096U   25159.75001157  .00173049  00000+0  40690-2 0  9995","satellite_name":"STARLINK-30194"},{"norad_id":"57309","company":"STARLINK","tle_line2":"2 57309  42.9963 259.1438 0017692 356.2881   3.7834 15.20584312105630","launch_date":"2023-07-10","type":"LEO","tle_line1":"1 57309U 23096V   25159.58875222  .00038419  00000+0  17157-2 0  9992","satellite_name":"STARLINK-30163"},{"norad_id":"57310","company":"STARLINK","tle_line2":"2 57310  43.0023 245.9376 0001445 274.7288  85.3390 15.02542237105801","launch_date":"2023-07-10","type":"LEO","tle_line1":"1 57310U 23096W   25159.69635902  .00001250  00000+0  10759-3 0  9990","satellite_name":"STARLINK-30184"},{"norad_id":"57311","company":"STARLINK","tle_line2":"2 57311  42.9997 268.4537 0010874 348.2836  11.7755 15.11503091105534","launch_date":"2023-07-10","type":"LEO","tle_line1":"1 57311U 23096X   25159.58643586  .00025694  00000+0  14966-2 0  9997","satellite_name":"STARLINK-30175"},{"norad_id":"57328","company":"STARLINK","tle_line2":"2 57328  43.0046 299.6773 0001262 261.6296  98.4404 15.02540858105766","launch_date":"2023-07-16","type":"LEO","tle_line1":"1 57328U 23099A   25159.40839741  .00000411  00000+0  45473-4 0  9998","satellite_name":"STARLINK-6290"},{"norad_id":"57329","company":"STARLINK","tle_line2":"2 57329  43.0044 298.1599 0001262 276.1315  83.9383 15.02527424104890","launch_date":"2023-07-16","type":"LEO","tle_line1":"1 57329U 23099B   25159.66431818  .00000629  00000+0  61650-4 0  9996","satellite_name":"STARLINK-6138"},{"norad_id":"57330","company":"STARLINK","tle_line2":"2 57330  43.0065 299.6545 0001831 272.1994  87.8639 15.02517434104856","launch_date":"2023-07-16","type":"LEO","tle_line1":"1 57330U 23099C   25159.40507891  .00005607  00000+0  43002-3 0  9996","satellite_name":"STARLINK-6212"},{"norad_id":"57331","company":"STARLINK","tle_line2":"2 57331  43.0044 297.8372 0001380 277.7713  82.2972 15.02529347104902","launch_date":"2023-07-16","type":"LEO","tle_line1":"1 57331U 23099D   25159.73634635  .00001041  00000+0  92165-4 0  9993","satellite_name":"STARLINK-6234"},{"norad_id":"57332","company":"STARLINK","tle_line2":"2 57332  43.0050 298.1813 0001379 270.8992  89.1692 15.02532813104890","launch_date":"2023-07-16","type":"LEO","tle_line1":"1 57332U 23099E   25159.66765332  .00001526  00000+0  12803-3 0  9993","satellite_name":"STARLINK-5831"},{"norad_id":"57333","company":"STARLINK","tle_line2":"2 57333  43.0046 298.1733 0001416 266.0279  94.0401 15.02530557104890","launch_date":"2023-07-16","type":"LEO","tle_line1":"1 57333U 23099F   25159.66654474 -.00000673  00000+0 -34763-4 0  9992","satellite_name":"STARLINK-5585"},{"norad_id":"57334","company":"STARLINK","tle_line2":"2 57334  43.0050 298.1327 0001350 263.7846  96.2843 15.02535232104895","launch_date":"2023-07-16","type":"LEO","tle_line1":"1 57334U 23099G   25159.66099780 -.00001523  00000+0 -97711-4 0  9993","satellite_name":"STARLINK-5589"},{"norad_id":"57335","company":"STARLINK","tle_line2":"2 57335  43.0048 302.7494 0001314 266.5378  93.5314 15.02537963105506","launch_date":"2023-07-16","type":"LEO","tle_line1":"1 57335U 23099H   25158.78568044 -.00000074  00000+0  95925-5 0  9995","satellite_name":"STARLINK-6316"},{"norad_id":"57336","company":"STARLINK","tle_line2":"2 57336  43.0048 297.4509 0001189 273.6351  86.4356 15.02538849104908","launch_date":"2023-07-16","type":"LEO","tle_line1":"1 57336U 23099J   25159.68639942 -.00000593  00000+0 -28799-4 0  9993","satellite_name":"STARLINK-6320"},{"norad_id":"57337","company":"STARLINK","tle_line2":"2 57337  43.0048 298.1040 0001574 263.7530  96.3133 15.02535930104893","launch_date":"2023-07-16","type":"LEO","tle_line1":"1 57337U 23099K   25159.65765846  .00000502  00000+0  52226-4 0  9994","satellite_name":"STARLINK-6322"},{"norad_id":"57338","company":"STARLINK","tle_line2":"2 57338  43.0045 297.7124 0001437 269.2705  90.7973 15.02532372104901","launch_date":"2023-07-16","type":"LEO","tle_line1":"1 57338U 23099L   25159.71970031 -.00000190  00000+0  97708-6 0  9996","satellite_name":"STARLINK-6374"},{"norad_id":"57339","company":"STARLINK","tle_line2":"2 57339  43.0037 297.7605 0001309 253.1902 106.8797 15.02539014104909","launch_date":"2023-07-16","type":"LEO","tle_line1":"1 57339U 23099M   25159.72636445 -.00001249  00000+0 -77371-4 0  9995","satellite_name":"STARLINK-6332"},{"norad_id":"57340","company":"STARLINK","tle_line2":"2 57340  43.0044 300.8720 0001008 275.8457  84.2270 15.02541650104819","launch_date":"2023-07-16","type":"LEO","tle_line1":"1 57340U 23099N   25159.10919092 -.00000847  00000+0 -47660-4 0  9992","satellite_name":"STARLINK-6321"},{"norad_id":"57341","company":"STARLINK","tle_line2":"2 57341  43.0043 298.0233 0001359 271.8276  88.2411 15.02538004104898","launch_date":"2023-07-16","type":"LEO","tle_line1":"1 57341U 23099P   25159.64655790  .00000525  00000+0  53923-4 0  9994","satellite_name":"STARLINK-6377"},{"norad_id":"57342","company":"STARLINK","tle_line2":"2 57342  43.0039 300.7450 0001715 275.5649  84.4997 15.02527959104813","launch_date":"2023-07-16","type":"LEO","tle_line1":"1 57342U 23099Q   25159.09255720  .00004700  00000+0  36286-3 0  9994","satellite_name":"STARLINK-6375"},{"norad_id":"57343","company":"STARLINK","tle_line2":"2 57343  43.0042 299.0786 0000900 280.4600  79.6141 15.02532579104863","launch_date":"2023-07-16","type":"LEO","tle_line1":"1 57343U 23099R   25159.44379908  .00001027  00000+0  91099-4 0  9992","satellite_name":"STARLINK-6379"},{"norad_id":"57344","company":"STARLINK","tle_line2":"2 57344  43.0050 299.3728 0001261 271.0609  89.0089 15.02535225104854","launch_date":"2023-07-16","type":"LEO","tle_line1":"1 57344U 23099S   25159.36843826  .00000652  00000+0  63364-4 0  9996","satellite_name":"STARLINK-6380"},{"norad_id":"57345","company":"STARLINK","tle_line2":"2 57345  43.0054 299.3975 0000918 245.4670 114.6077 15.02538128104851","launch_date":"2023-07-16","type":"LEO","tle_line1":"1 57345U 23099T   25159.37176959  .00001081  00000+0  95042-4 0  9999","satellite_name":"STARLINK-6373"},{"norad_id":"57346","company":"STARLINK","tle_line2":"2 57346  43.0039 298.8864 0001240 272.4326  87.6374 15.02525734104862","launch_date":"2023-07-16","type":"LEO","tle_line1":"1 57346U 23099U   25159.41826535  .00001078  00000+0  94856-4 0  9995","satellite_name":"STARLINK-6359"},{"norad_id":"57347","company":"STARLINK","tle_line2":"2 57347  43.0041 298.9799 0001265 272.0367  88.0331 15.02536679104860","launch_date":"2023-07-16","type":"LEO","tle_line1":"1 57347U 23099V   25159.43047930  .00000024  00000+0  16820-4 0  9997","satellite_name":"STARLINK-6378"},{"norad_id":"57348","company":"STARLINK","tle_line2":"2 57348  43.0044 297.3997 0001295 269.0603  91.0091 15.02534426104909","launch_date":"2023-07-16","type":"LEO","tle_line1":"1 57348U 23099W   25159.67863142  .00000036  00000+0  17726-4 0  9994","satellite_name":"STARLINK-6372"},{"norad_id":"57349","company":"STARLINK","tle_line2":"2 57349  43.0047 297.4204 0001325 273.1430  86.9261 15.02532663105626","launch_date":"2023-07-16","type":"LEO","tle_line1":"1 57349U 23099X   25159.68085838 -.00001625  00000+0 -10522-3 0  9997","satellite_name":"STARLINK-6376"},{"norad_id":"57350","company":"STARLINK","tle_line2":"2 57350  43.0044 285.6566 0001519 265.2022  94.8647 15.02534223105034","launch_date":"2023-07-16","type":"LEO","tle_line1":"1 57350U 23099Y   25159.62029559  .00000132  00000+0  24859-4 0  9990","satellite_name":"STARLINK-6362"},{"norad_id":"57351","company":"STARLINK","tle_line2":"2 57351  43.0035 298.8378 0001419 268.9297  91.1383 15.02539324104869","launch_date":"2023-07-16","type":"LEO","tle_line1":"1 57351U 23099Z   25159.41160774  .00000307  00000+0  37824-4 0  9993","satellite_name":"STARLINK-6331"},{"norad_id":"57352","company":"STARLINK","tle_line2":"2 57352  43.0052 285.6092 0001244 268.6647  91.4053 15.02535454105035","launch_date":"2023-07-16","type":"LEO","tle_line1":"1 57352U 23099AA  25159.61363485  .00000852  00000+0  78168-4 0  9991","satellite_name":"STARLINK-6297"},{"norad_id":"57353","company":"STARLINK","tle_line2":"2 57353  43.0045 297.3747 0001626 269.8354  90.2302 15.02536528104909","launch_date":"2023-07-16","type":"LEO","tle_line1":"1 57353U 23099AB  25159.67530165 -.00000082  00000+0  90420-5 0  9991","satellite_name":"STARLINK-6324"},{"norad_id":"57354","company":"STARLINK","tle_line2":"2 57354  43.0039 285.1770 0001132 268.4380  91.6333 15.02539726105048","launch_date":"2023-07-16","type":"LEO","tle_line1":"1 57354U 23099AC  25159.67122935  .00000423  00000+0  46361-4 0  9996","satellite_name":"STARLINK-6293"},{"norad_id":"57355","company":"STARLINK","tle_line2":"2 57355  43.0048 285.6340 0001411 268.1808  91.8873 15.02535555105035","launch_date":"2023-07-16","type":"LEO","tle_line1":"1 57355U 23099AD  25159.61696616 -.00000002  00000+0  14952-4 0  9998","satellite_name":"STARLINK-6276"},{"norad_id":"57356","company":"STARLINK","tle_line2":"2 57356  43.0038 285.1678 0001201 272.7855  87.2850 15.02536772105041","launch_date":"2023-07-16","type":"LEO","tle_line1":"1 57356U 23099AE  25159.67012358  .00000325  00000+0  39104-4 0  9993","satellite_name":"STARLINK-6355"}]